{
  "type": "FeatureCollection",
  "name": "Natural Earth 1:110m project countries",
  "features": [
    {
      "type": "Feature",
      "properties": {
        "project_country_id": "ZAF",
        "natural_earth_name": "South Africa"
      },
      "geometry": {
        "type": "Polygon",
        "coordinates": [
          [
            [
              16.344977,
              -28.576705
            ],
            [
              16.824017,
              -28.082162
            ],
            [
              17.218929,
              -28.355943
            ],
            [
              17.387497,
              -28.783514
            ],
            [
              17.836152,
              -28.856378
            ],
            [
              18.464899,
              -29.045462
            ],
            [
              19.002127,
              -28.972443
            ],
            [
              19.894734,
              -28.461105
            ],
            [
              19.895768,
              -24.76779
            ],
            [
              20.165726,
              -24.917962
            ],
            [
              20.758609,
              -25.868136
            ],
            [
              20.66647,
              -26.477453
            ],
            [
              20.889609,
              -26.828543
            ],
            [
              21.605896,
              -26.726534
            ],
            [
              22.105969,
              -26.280256
            ],
            [
              22.579532,
              -25.979448
            ],
            [
              22.824271,
              -25.500459
            ],
            [
              23.312097,
              -25.26869
            ],
            [
              23.73357,
              -25.390129
            ],
            [
              24.211267,
              -25.670216
            ],
            [
              25.025171,
              -25.71967
            ],
            [
              25.664666,
              -25.486816
            ],
            [
              25.765849,
              -25.174845
            ],
            [
              25.941652,
              -24.696373
            ],
            [
              26.485753,
              -24.616327
            ],
            [
              26.786407,
              -24.240691
            ],
            [
              27.11941,
              -23.574323
            ],
            [
              28.017236,
              -22.827754
            ],
            [
              29.432188,
              -22.091313
            ],
            [
              29.839037,
              -22.102216
            ],
            [
              30.322883,
              -22.271612
            ],
            [
              30.659865,
              -22.151567
            ],
            [
              31.191409,
              -22.25151
            ],
            [
              31.670398,
              -23.658969
            ],
            [
              31.930589,
              -24.369417
            ],
            [
              31.752408,
              -25.484284
            ],
            [
              31.837778,
              -25.843332
            ],
            [
              31.333158,
              -25.660191
            ],
            [
              31.04408,
              -25.731452
            ],
            [
              30.949667,
              -26.022649
            ],
            [
              30.676609,
              -26.398078
            ],
            [
              30.685962,
              -26.743845
            ],
            [
              31.282773,
              -27.285879
            ],
            [
              31.86806,
              -27.177927
            ],
            [
              32.071665,
              -26.73382
            ],
            [
              32.83012,
              -26.742192
            ],
            [
              32.580265,
              -27.470158
            ],
            [
              32.462133,
              -28.301011
            ],
            [
              32.203389,
              -28.752405
            ],
            [
              31.521001,
              -29.257387
            ],
            [
              31.325561,
              -29.401978
            ],
            [
              30.901763,
              -29.909957
            ],
            [
              30.622813,
              -30.423776
            ],
            [
              30.055716,
              -31.140269
            ],
            [
              28.925553,
              -32.172041
            ],
            [
              28.219756,
              -32.771953
            ],
            [
              27.464608,
              -33.226964
            ],
            [
              26.419452,
              -33.61495
            ],
            [
              25.909664,
              -33.66704
            ],
            [
              25.780628,
              -33.944646
            ],
            [
              25.172862,
              -33.796851
            ],
            [
              24.677853,
              -33.987176
            ],
            [
              23.594043,
              -33.794474
            ],
            [
              22.988189,
              -33.916431
            ],
            [
              22.574157,
              -33.864083
            ],
            [
              21.542799,
              -34.258839
            ],
            [
              20.689053,
              -34.417175
            ],
            [
              20.071261,
              -34.795137
            ],
            [
              19.616405,
              -34.819166
            ],
            [
              19.193278,
              -34.462599
            ],
            [
              18.855315,
              -34.444306
            ],
            [
              18.424643,
              -33.997873
            ],
            [
              18.377411,
              -34.136521
            ],
            [
              18.244499,
              -33.867752
            ],
            [
              18.25008,
              -33.281431
            ],
            [
              17.92519,
              -32.611291
            ],
            [
              18.24791,
              -32.429131
            ],
            [
              18.221762,
              -31.661633
            ],
            [
              17.566918,
              -30.725721
            ],
            [
              17.064416,
              -29.878641
            ],
            [
              17.062918,
              -29.875954
            ],
            [
              16.344977,
              -28.576705
            ]
          ],
          [
            [
              28.978263,
              -28.955597
            ],
            [
              28.5417,
              -28.647502
            ],
            [
              28.074338,
              -28.851469
            ],
            [
              27.532511,
              -29.242711
            ],
            [
              26.999262,
              -29.875954
            ],
            [
              27.749397,
              -30.645106
            ],
            [
              28.107205,
              -30.545732
            ],
            [
              28.291069,
              -30.226217
            ],
            [
              28.8484,
              -30.070051
            ],
            [
              29.018415,
              -29.743766
            ],
            [
              29.325166,
              -29.257387
            ],
            [
              28.978263,
              -28.955597
            ]
          ]
        ]
      }
    },
    {
      "type": "Feature",
      "properties": {
        "project_country_id": "LSO",
        "natural_earth_name": "Lesotho"
      },
      "geometry": {
        "type": "Polygon",
        "coordinates": [
          [
            [
              28.978263,
              -28.955597
            ],
            [
              29.325166,
              -29.257387
            ],
            [
              29.018415,
              -29.743766
            ],
            [
              28.8484,
              -30.070051
            ],
            [
              28.291069,
              -30.226217
            ],
            [
              28.107205,
              -30.545732
            ],
            [
              27.749397,
              -30.645106
            ],
            [
              26.999262,
              -29.875954
            ],
            [
              27.532511,
              -29.242711
            ],
            [
              28.074338,
              -28.851469
            ],
            [
              28.5417,
              -28.647502
            ],
            [
              28.978263,
              -28.955597
            ]
          ]
        ]
      }
    },
    {
      "type": "Feature",
      "properties": {
        "project_country_id": "ZWE",
        "natural_earth_name": "Zimbabwe"
      },
      "geometry": {
        "type": "Polygon",
        "coordinates": [
          [
            [
              31.191409,
              -22.25151
            ],
            [
              30.659865,
              -22.151567
            ],
            [
              30.322883,
              -22.271612
            ],
            [
              29.839037,
              -22.102216
            ],
            [
              29.432188,
              -22.091313
            ],
            [
              28.794656,
              -21.639454
            ],
            [
              28.02137,
              -21.485975
            ],
            [
              27.727228,
              -20.851802
            ],
            [
              27.724747,
              -20.499059
            ],
            [
              27.296505,
              -20.39152
            ],
            [
              26.164791,
              -19.293086
            ],
            [
              25.850391,
              -18.714413
            ],
            [
              25.649163,
              -18.536026
            ],
            [
              25.264226,
              -17.73654
            ],
            [
              26.381935,
              -17.846042
            ],
            [
              26.706773,
              -17.961229
            ],
            [
              27.044427,
              -17.938026
            ],
            [
              27.598243,
              -17.290831
            ],
            [
              28.467906,
              -16.4684
            ],
            [
              28.825869,
              -16.389749
            ],
            [
              28.947463,
              -16.043051
            ],
            [
              29.516834,
              -15.644678
            ],
            [
              30.274256,
              -15.507787
            ],
            [
              30.338955,
              -15.880839
            ],
            [
              31.173064,
              -15.860944
            ],
            [
              31.636498,
              -16.07199
            ],
            [
              31.852041,
              -16.319417
            ],
            [
              32.328239,
              -16.392074
            ],
            [
              32.847639,
              -16.713398
            ],
            [
              32.849861,
              -17.979057
            ],
            [
              32.654886,
              -18.67209
            ],
            [
              32.611994,
              -19.419383
            ],
            [
              32.772708,
              -19.715592
            ],
            [
              32.659743,
              -20.30429
            ],
            [
              32.508693,
              -20.395292
            ],
            [
              32.244988,
              -21.116489
            ],
            [
              31.191409,
              -22.25151
            ]
          ]
        ]
      }
    },
    {
      "type": "Feature",
      "properties": {
        "project_country_id": "BWA",
        "natural_earth_name": "Botswana"
      },
      "geometry": {
        "type": "Polygon",
        "coordinates": [
          [
            [
              29.432188,
              -22.091313
            ],
            [
              28.017236,
              -22.827754
            ],
            [
              27.11941,
              -23.574323
            ],
            [
              26.786407,
              -24.240691
            ],
            [
              26.485753,
              -24.616327
            ],
            [
              25.941652,
              -24.696373
            ],
            [
              25.765849,
              -25.174845
            ],
            [
              25.664666,
              -25.486816
            ],
            [
              25.025171,
              -25.71967
            ],
            [
              24.211267,
              -25.670216
            ],
            [
              23.73357,
              -25.390129
            ],
            [
              23.312097,
              -25.26869
            ],
            [
              22.824271,
              -25.500459
            ],
            [
              22.579532,
              -25.979448
            ],
            [
              22.105969,
              -26.280256
            ],
            [
              21.605896,
              -26.726534
            ],
            [
              20.889609,
              -26.828543
            ],
            [
              20.66647,
              -26.477453
            ],
            [
              20.758609,
              -25.868136
            ],
            [
              20.165726,
              -24.917962
            ],
            [
              19.895768,
              -24.76779
            ],
            [
              19.895458,
              -21.849157
            ],
            [
              20.881134,
              -21.814327
            ],
            [
              20.910641,
              -18.252219
            ],
            [
              21.65504,
              -18.219146
            ],
            [
              23.196858,
              -17.869038
            ],
            [
              23.579006,
              -18.281261
            ],
            [
              24.217365,
              -17.889347
            ],
            [
              24.520705,
              -17.887125
            ],
            [
              25.084443,
              -17.661816
            ],
            [
              25.264226,
              -17.73654
            ],
            [
              25.649163,
              -18.536026
            ],
            [
              25.850391,
              -18.714413
            ],
            [
              26.164791,
              -19.293086
            ],
            [
              27.296505,
              -20.39152
            ],
            [
              27.724747,
              -20.499059
            ],
            [
              27.727228,
              -20.851802
            ],
            [
              28.02137,
              -21.485975
            ],
            [
              28.794656,
              -21.639454
            ],
            [
              29.432188,
              -22.091313
            ]
          ]
        ]
      }
    },
    {
      "type": "Feature",
      "properties": {
        "project_country_id": "NAM",
        "natural_earth_name": "Namibia"
      },
      "geometry": {
        "type": "Polygon",
        "coordinates": [
          [
            [
              19.895768,
              -24.76779
            ],
            [
              19.894734,
              -28.461105
            ],
            [
              19.002127,
              -28.972443
            ],
            [
              18.464899,
              -29.045462
            ],
            [
              17.836152,
              -28.856378
            ],
            [
              17.387497,
              -28.783514
            ],
            [
              17.218929,
              -28.355943
            ],
            [
              16.824017,
              -28.082162
            ],
            [
              16.344977,
              -28.576705
            ],
            [
              15.601818,
              -27.821247
            ],
            [
              15.210472,
              -27.090956
            ],
            [
              14.989711,
              -26.117372
            ],
            [
              14.743214,
              -25.39292
            ],
            [
              14.408144,
              -23.853014
            ],
            [
              14.385717,
              -22.656653
            ],
            [
              14.257714,
              -22.111208
            ],
            [
              13.868642,
              -21.699037
            ],
            [
              13.352498,
              -20.872834
            ],
            [
              12.826845,
              -19.673166
            ],
            [
              12.608564,
              -19.045349
            ],
            [
              11.794919,
              -18.069129
            ],
            [
              11.734199,
              -17.301889
            ],
            [
              12.215461,
              -17.111668
            ],
            [
              12.814081,
              -16.941343
            ],
            [
              13.462362,
              -16.971212
            ],
            [
              14.058501,
              -17.423381
            ],
            [
              14.209707,
              -17.353101
            ],
            [
              18.263309,
              -17.309951
            ],
            [
              18.956187,
              -17.789095
            ],
            [
              21.377176,
              -17.930636
            ],
            [
              23.215048,
              -17.523116
            ],
            [
              24.033862,
              -17.295843
            ],
            [
              24.682349,
              -17.353411
            ],
            [
              25.07695,
              -17.578823
            ],
            [
              25.084443,
              -17.661816
            ],
            [
              24.520705,
              -17.887125
            ],
            [
              24.217365,
              -17.889347
            ],
            [
              23.579006,
              -18.281261
            ],
            [
              23.196858,
              -17.869038
            ],
            [
              21.65504,
              -18.219146
            ],
            [
              20.910641,
              -18.252219
            ],
            [
              20.881134,
              -21.814327
            ],
            [
              19.895458,
              -21.849157
            ],
            [
              19.895768,
              -24.76779
            ]
          ]
        ]
      }
    },
    {
      "type": "Feature",
      "properties": {
        "project_country_id": "ZMB",
        "natural_earth_name": "Zambia"
      },
      "geometry": {
        "type": "Polygon",
        "coordinates": [
          [
            [
              30.74001,
              -8.340006
            ],
            [
              31.157751,
              -8.594579
            ],
            [
              31.556348,
              -8.762049
            ],
            [
              32.191865,
              -8.930359
            ],
            [
              32.759375,
              -9.230599
            ],
            [
              33.231388,
              -9.676722
            ],
            [
              33.485688,
              -10.525559
            ],
            [
              33.31531,
              -10.79655
            ],
            [
              33.114289,
              -11.607198
            ],
            [
              33.306422,
              -12.435778
            ],
            [
              32.991764,
              -12.783871
            ],
            [
              32.688165,
              -13.712858
            ],
            [
              33.214025,
              -13.97186
            ],
            [
              30.179481,
              -14.796099
            ],
            [
              30.274256,
              -15.507787
            ],
            [
              29.516834,
              -15.644678
            ],
            [
              28.947463,
              -16.043051
            ],
            [
              28.825869,
              -16.389749
            ],
            [
              28.467906,
              -16.4684
            ],
            [
              27.598243,
              -17.290831
            ],
            [
              27.044427,
              -17.938026
            ],
            [
              26.706773,
              -17.961229
            ],
            [
              26.381935,
              -17.846042
            ],
            [
              25.264226,
              -17.73654
            ],
            [
              25.084443,
              -17.661816
            ],
            [
              25.07695,
              -17.578823
            ],
            [
              24.682349,
              -17.353411
            ],
            [
              24.033862,
              -17.295843
            ],
            [
              23.215048,
              -17.523116
            ],
            [
              22.562478,
              -16.898451
            ],
            [
              21.887843,
              -16.08031
            ],
            [
              21.933886,
              -12.898437
            ],
            [
              24.016137,
              -12.911046
            ],
            [
              23.930922,
              -12.565848
            ],
            [
              24.079905,
              -12.191297
            ],
            [
              23.904154,
              -11.722282
            ],
            [
              24.017894,
              -11.237298
            ],
            [
              23.912215,
              -10.926826
            ],
            [
              24.257155,
              -10.951993
            ],
            [
              24.314516,
              -11.262826
            ],
            [
              24.78317,
              -11.238694
            ],
            [
              25.418118,
              -11.330936
            ],
            [
              25.75231,
              -11.784965
            ],
            [
              26.553088,
              -11.92444
            ],
            [
              27.16442,
              -11.608748
            ],
            [
              27.388799,
              -12.132747
            ],
            [
              28.155109,
              -12.272481
            ],
            [
              28.523562,
              -12.698604
            ],
            [
              28.934286,
              -13.248958
            ],
            [
              29.699614,
              -13.257227
            ],
            [
              29.616001,
              -12.178895
            ],
            [
              29.341548,
              -12.360744
            ],
            [
              28.642417,
              -11.971569
            ],
            [
              28.372253,
              -11.793647
            ],
            [
              28.49607,
              -10.789884
            ],
            [
              28.673682,
              -9.605925
            ],
            [
              28.449871,
              -9.164918
            ],
            [
              28.734867,
              -8.526559
            ],
            [
              29.002912,
              -8.407032
            ],
            [
              30.346086,
              -8.238257
            ],
            [
              30.74001,
              -8.340006
            ]
          ]
        ]
      }
    },
    {
      "type": "Feature",
      "properties": {
        "project_country_id": "MWI",
        "natural_earth_name": "Malawi"
      },
      "geometry": {
        "type": "Polygon",
        "coordinates": [
          [
            [
              32.759375,
              -9.230599
            ],
            [
              33.73972,
              -9.41715
            ],
            [
              33.940838,
              -9.693674
            ],
            [
              34.28,
              -10.16
            ],
            [
              34.559989,
              -11.52002
            ],
            [
              34.280006,
              -12.280025
            ],
            [
              34.559989,
              -13.579998
            ],
            [
              34.907151,
              -13.565425
            ],
            [
              35.267956,
              -13.887834
            ],
            [
              35.686845,
              -14.611046
            ],
            [
              35.771905,
              -15.896859
            ],
            [
              35.339063,
              -16.10744
            ],
            [
              35.03381,
              -16.8013
            ],
            [
              34.381292,
              -16.18356
            ],
            [
              34.307291,
              -15.478641
            ],
            [
              34.517666,
              -15.013709
            ],
            [
              34.459633,
              -14.61301
            ],
            [
              34.064825,
              -14.35995
            ],
            [
              33.7897,
              -14.451831
            ],
            [
              33.214025,
              -13.97186
            ],
            [
              32.688165,
              -13.712858
            ],
            [
              32.991764,
              -12.783871
            ],
            [
              33.306422,
              -12.435778
            ],
            [
              33.114289,
              -11.607198
            ],
            [
              33.31531,
              -10.79655
            ],
            [
              33.485688,
              -10.525559
            ],
            [
              33.231388,
              -9.676722
            ],
            [
              32.759375,
              -9.230599
            ]
          ]
        ]
      }
    },
    {
      "type": "Feature",
      "properties": {
        "project_country_id": "MOZ",
        "natural_earth_name": "Mozambique"
      },
      "geometry": {
        "type": "Polygon",
        "coordinates": [
          [
            [
              34.559989,
              -11.52002
            ],
            [
              35.312398,
              -11.439146
            ],
            [
              36.514082,
              -11.720938
            ],
            [
              36.775151,
              -11.594537
            ],
            [
              37.47129,
              -11.56876
            ],
            [
              37.82764,
              -11.26879
            ],
            [
              38.427557,
              -11.285202
            ],
            [
              39.521,
              -10.89688
            ],
            [
              40.31659,
              -10.3171
            ],
            [
              40.316586,
              -10.317098
            ],
            [
              40.316589,
              -10.317096
            ],
            [
              40.478387,
              -10.765441
            ],
            [
              40.437253,
              -11.761711
            ],
            [
              40.560811,
              -12.639177
            ],
            [
              40.59962,
              -14.201975
            ],
            [
              40.775475,
              -14.691764
            ],
            [
              40.477251,
              -15.406294
            ],
            [
              40.089264,
              -16.100774
            ],
            [
              39.452559,
              -16.720891
            ],
            [
              38.538351,
              -17.101023
            ],
            [
              37.411133,
              -17.586368
            ],
            [
              36.281279,
              -18.659688
            ],
            [
              35.896497,
              -18.84226
            ],
            [
              35.1984,
              -19.552811
            ],
            [
              34.786383,
              -19.784012
            ],
            [
              34.701893,
              -20.497043
            ],
            [
              35.176127,
              -21.254361
            ],
            [
              35.373428,
              -21.840837
            ],
            [
              35.385848,
              -22.14
            ],
            [
              35.562546,
              -22.09
            ],
            [
              35.533935,
              -23.070788
            ],
            [
              35.371774,
              -23.535359
            ],
            [
              35.60747,
              -23.706563
            ],
            [
              35.458746,
              -24.12261
            ],
            [
              35.040735,
              -24.478351
            ],
            [
              34.215824,
              -24.816314
            ],
            [
              33.01321,
              -25.357573
            ],
            [
              32.574632,
              -25.727318
            ],
            [
              32.660363,
              -26.148584
            ],
            [
              32.915955,
              -26.215867
            ],
            [
              32.83012,
              -26.742192
            ],
            [
              32.071665,
              -26.73382
            ],
            [
              31.985779,
              -26.29178
            ],
            [
              31.837778,
              -25.843332
            ],
            [
              31.752408,
              -25.484284
            ],
            [
              31.930589,
              -24.369417
            ],
            [
              31.670398,
              -23.658969
            ],
            [
              31.191409,
              -22.25151
            ],
            [
              32.244988,
              -21.116489
            ],
            [
              32.508693,
              -20.395292
            ],
            [
              32.659743,
              -20.30429
            ],
            [
              32.772708,
              -19.715592
            ],
            [
              32.611994,
              -19.419383
            ],
            [
              32.654886,
              -18.67209
            ],
            [
              32.849861,
              -17.979057
            ],
            [
              32.847639,
              -16.713398
            ],
            [
              32.328239,
              -16.392074
            ],
            [
              31.852041,
              -16.319417
            ],
            [
              31.636498,
              -16.07199
            ],
            [
              31.173064,
              -15.860944
            ],
            [
              30.338955,
              -15.880839
            ],
            [
              30.274256,
              -15.507787
            ],
            [
              30.179481,
              -14.796099
            ],
            [
              33.214025,
              -13.97186
            ],
            [
              33.7897,
              -14.451831
            ],
            [
              34.064825,
              -14.35995
            ],
            [
              34.459633,
              -14.61301
            ],
            [
              34.517666,
              -15.013709
            ],
            [
              34.307291,
              -15.478641
            ],
            [
              34.381292,
              -16.18356
            ],
            [
              35.03381,
              -16.8013
            ],
            [
              35.339063,
              -16.10744
            ],
            [
              35.771905,
              -15.896859
            ],
            [
              35.686845,
              -14.611046
            ],
            [
              35.267956,
              -13.887834
            ],
            [
              34.907151,
              -13.565425
            ],
            [
              34.559989,
              -13.579998
            ],
            [
              34.280006,
              -12.280025
            ],
            [
              34.559989,
              -11.52002
            ]
          ]
        ]
      }
    },
    {
      "type": "Feature",
      "properties": {
        "project_country_id": "SWZ",
        "natural_earth_name": "eSwatini"
      },
      "geometry": {
        "type": "Polygon",
        "coordinates": [
          [
            [
              32.071665,
              -26.73382
            ],
            [
              31.86806,
              -27.177927
            ],
            [
              31.282773,
              -27.285879
            ],
            [
              30.685962,
              -26.743845
            ],
            [
              30.676609,
              -26.398078
            ],
            [
              30.949667,
              -26.022649
            ],
            [
              31.04408,
              -25.731452
            ],
            [
              31.333158,
              -25.660191
            ],
            [
              31.837778,
              -25.843332
            ],
            [
              31.985779,
              -26.29178
            ],
            [
              32.071665,
              -26.73382
            ]
          ]
        ]
      }
    }
  ]
}
